     2.100          NAVIGATION                              RINEX VERSION / TYPE
fic2rin                                 03/12/2014 00:23:36 PGM / RUN BY / DATE
                                                            END OF HEADER
18 14  3 11 16  0  0.0  .306673347950D-03  .216004991671D-11  .000000000000D+00
     .105000000000D+03  .213437500000D+02  .562451999812D-08 -.211004629043D+01
     .108964741230D-05  .148722499143D-01  .531785190105D-05  .515367189217D+04
     .230400000000D+06  .212341547012D-06  .718167394600D+00  .242143869400D-07
     .926204128005D+00  .253843750000D+03 -.205553227351D+01 -.839784980415D-08
     .345728686702D-09  .100000000000D+01  .178300000000D+04  .000000000000D+00
     .340000000000D+01  .000000000000D+00 -.107102096081D-07  .105000000000D+03
     .223206000000D+06  .400000000000D+01
19 14  3 11 16  0  0.0 -.444077886641D-03 -.238742359215D-11  .000000000000D+00
     .460000000000D+02 -.761250000000D+02  .440304054717D-08  .176225468590D+01
    -.395998358727D-05  .100374802714D-01  .729970633984D-05  .515359061241D+04
     .230400000000D+06 -.111758708954D-06 -.127539818383D+01  .134110450745D-06
     .964864852803D+00  .241687500000D+03  .405853073455D+00 -.813176729218D-08
    -.177507393895D-09  .100000000000D+01  .178300000000D+04  .000000000000D+00
     .240000000000D+01  .000000000000D+00 -.149011611938D-07  .460000000000D+02
     .223206000000D+06  .400000000000D+01
20 14  3 11 16  0  0.0  .169077422470D-03  .352429196937D-11  .000000000000D+00
     .106000000000D+03  .237500000000D+02  .569916596457D-08 -.158338061875D+01
     .138580799103D-05  .590957712848D-02  .608339905739D-05  .515355351067D+04
     .230400000000D+06  .856816768646D-07  .665013590131D+00  .106170773506D-06
     .927198293485D+00  .245656250000D+03  .131361706641D+01 -.856678541243D-08
     .224295057075D-09  .100000000000D+01  .178300000000D+04  .000000000000D+00
     .340000000000D+01  .000000000000D+00 -.791624188423D-08  .106000000000D+03
     .223206000000D+06  .400000000000D+01
21 14  3 11 16  0  0.0 -.348742585629D-03 -.227373675443D-11  .000000000000D+00
     .110000000000D+02 -.600000000000D+01  .508414034628D-08 -.108968885579D+01
     .124797224998D-06  .212001533946D-01  .945106148720D-05  .515379064941D+04
     .230400000000D+06  .203028321266D-06 -.327082878532D+00  .471249222755D-06
     .932576297798D+00  .181187500000D+03 -.205366419588D+01 -.835963392659D-08
     .311084386485D-09  .100000000000D+01  .178300000000D+04  .000000000000D+00
     .240000000000D+01  .000000000000D+00 -.111758708954D-07  .110000000000D+02
     .223206000000D+06  .400000000000D+01
22 14  3 11 16  0  0.0  .218833796680D-03  .284217094304D-11  .000000000000D+00
     .720000000000D+02  .196562500000D+02  .572845289877D-08 -.265620182282D+01
     .886619091034D-06  .688305520453D-02  .580586493015D-05  .515372709274D+04
     .230400000000D+06  .182539224625D-06  .720199545808D+00 -.447034835815D-07
     .923970749490D+00  .246843750000D+03 -.206551854877D+01 -.856857120110D-08
     .229295265354D-09  .100000000000D+01  .178300000000D+04  .000000000000D+00
     .240000000000D+01  .000000000000D+00 -.172294676304D-07  .720000000000D+02
     .223206000000D+06  .400000000000D+01
23 14  3 11 16  0  0.0 -.297930091619D-05 -.318323145621D-11  .000000000000D+00
     .320000000000D+02 -.396875000000D+01  .497949313016D-08  .143188762942D+01
     .298023223877D-07  .898851838429D-02  .788830220699D-05  .515358009529D+04
     .230400000000D+06  .447034835815D-07  .178319970389D+01  .158324837685D-06
     .952232732201D+00  .225531250000D+03 -.280475687619D+01 -.830356016232D-08
    -.507521140293D-09  .100000000000D+01  .178300000000D+04  .000000000000D+00
     .240000000000D+01  .000000000000D+00 -.200234353542D-07  .320000000000D+02
     .223206000000D+06  .400000000000D+01
24 14  3 11 16  0  0.0 -.247564166784D-04 -.682121026330D-12  .000000000000D+00
     .950000000000D+02  .573437500000D+02  .448697261471D-08  .746290097270D+00
     .308081507683D-05  .196399865672D-02  .896304845810D-05  .515362271690D+04
     .230400000000D+06  .335276126862D-07  .281004158144D+01  .186264514923D-08
     .957561373269D+00  .200093750000D+03  .237514727270D+00 -.806462163815D-08
    -.106790162525D-09  .100000000000D+01  .178300000000D+04  .000000000000D+00
     .340000000000D+01  .000000000000D+00  .325962901115D-08  .950000000000D+02
     .223206000000D+06  .400000000000D+01
25 14  3 11 16  0  0.0  .180923379958D-04  .147792889038D-11  .000000000000D+00
     .470000000000D+02  .276562500000D+02  .424017662038D-08 -.137270677070D+01
     .141188502312D-05  .329688005149D-02  .393576920033D-05  .515364021301D+04
     .230400000000D+06  .108033418655D-06 -.241988490361D+01 -.745058059692D-07
     .975657602615D+00  .312781250000D+03  .612860696657D+00 -.809069415274D-08
     .725030200418D-10  .100000000000D+01  .178300000000D+04  .000000000000D+00
     .240000000000D+01  .000000000000D+00  .558793544769D-08  .470000000000D+02
     .223206000000D+06  .400000000000D+01
26 14  3 11 16  0  0.0  .141756609082D-03 -.109139364213D-10  .000000000000D+00
     .490000000000D+02 -.142187500000D+02  .438768276460D-08  .135145292484D+01
    -.976026058197D-06  .214944859035D-01  .924803316593D-05  .515368725014D+04
     .230400000000D+06 -.447034835815D-06  .187003316241D+01 -.270083546638D-06
     .975445589213D+00  .215781250000D+03  .126905774473D+01 -.809676583423D-08
    -.493234830925D-09  .100000000000D+01  .178300000000D+04  .000000000000D+00
     .340000000000D+01  .000000000000D+00 -.605359673500D-08  .490000000000D+02
     .223206000000D+06  .400000000000D+01
27 14  3 11 16  0  0.0 -.202627852559D-04 -.341060513165D-12  .000000000000D+00
     .780000000000D+02 -.696875000000D+02  .446054294237D-08  .272659597348D+01
    -.355578958988D-05  .928483554162D-03  .649318099022D-05  .515367399597D+04
     .230400000000D+06 -.372529029846D-08 -.137156429166D+01  .111758708954D-07
     .962391195845D+00  .252906250000D+03  .345070205331D-01 -.814569644381D-08
    -.678599694973D-10  .100000000000D+01  .178300000000D+04  .000000000000D+00
     .240000000000D+01  .000000000000D+00  .186264514923D-08  .780000000000D+02
     .223206000000D+06  .400000000000D+01
28 14  3 11 16  0  0.0  .338782556355D-03  .284217094304D-11  .000000000000D+00
     .600000000000D+02  .197812500000D+02  .396945105786D-08 -.287912740205D+01
     .103004276752D-05  .192193002440D-01  .342726707458D-05  .515366420555D+04
     .230400000000D+06  .178813934326D-06 -.235395706232D+01 -.223517417908D-07
     .986004465238D+00  .326093750000D+03 -.171935445084D+01 -.771639284731D-08
     .127862468842D-09  .100000000000D+01  .178300000000D+04  .000000000000D+00
     .240000000000D+01  .000000000000D+00 -.107102096081D-07  .600000000000D+02
     .223206000000D+06  .400000000000D+01
30 14  3 11 16  0  0.0  .362889841199D-05  .227373675443D-11  .000000000000D+00
     .620000000000D+02  .726875000000D+02  .419981779641D-08 -.175478599171D+01
     .354275107384D-05  .293454376515D-02  .892765820026D-05  .517284011841D+04
     .230400000000D+06  .633299350739D-07  .289882440756D+01  .670552253723D-07
     .959721904315D+00  .203125000000D+03 -.150852225214D+01 -.780068207258D-08
    -.785747015231D-10  .100000000000D+01  .178300000000D+04  .000000000000D+00
     .240000000000D+01  .630000000000D+02  .512227416039D-08  .620000000000D+02
     .223206000000D+06  .400000000000D+01
31 14  3 11 16  0  0.0  .333764124662D-03  .227373675443D-12  .000000000000D+00
     .770000000000D+02  .517187500000D+02  .394837875154D-08 -.309692713430D+00
     .267848372459D-05  .816456880420D-02  .898540019989D-05  .515379179955D+04
     .230400000000D+06 -.931322574615D-08  .284918572898D+01 -.143423676491D-06
     .979143714454D+00  .218781250000D+03 -.643612207523D+00 -.787925677410D-08
    -.682171272315D-10  .100000000000D+01  .178300000000D+04  .000000000000D+00
     .240000000000D+01  .000000000000D+00 -.130385160446D-07  .770000000000D+02
     .223206000000D+06  .400000000000D+01
32 14  3 11 16  0  0.0 -.471131876111D-03  .704858393874D-11  .000000000000D+00
     .620000000000D+02  .157500000000D+02  .533736517983D-08  .383692728948D+00
     .845640897751D-06  .114603756228D-01  .587292015553D-05  .515348617554D+04
     .230400000000D+06  .188127160072D-06  .810625206982D+00 -.502914190292D-07
     .948052250684D+00  .261687500000D+03 -.174535584622D+00 -.852714090393D-08
     .120362156424D-09  .100000000000D+01  .178300000000D+04  .000000000000D+00
     .240000000000D+01  .000000000000D+00 -.325962901115D-08  .620000000000D+02
     .223206000000D+06  .400000000000D+01
17 14  3 11 15 59 44.0 -.754394568503D-04 -.329691829393D-11  .000000000000D+00
     .100000000000D+02 -.975312500000D+02  .419731769227D-08  .251941201160D+01
    -.496208667755D-05  .925488304347D-02  .728853046894D-05  .515356229782D+04
     .230384000000D+06  .670552253723D-07 -.132648259266D+01 -.137835741043D-06
     .967702436965D+00  .240906250000D+03 -.211544213064D+01 -.788747140199D-08
    -.828605943335D-10  .100000000000D+01  .178300000000D+04  .000000000000D+00
     .240000000000D+01  .000000000000D+00 -.102445483208D-07  .100000000000D+02
     .223656000000D+06  .400000000000D+01
16 14  3 11 15 59 44.0 -.228186603636D-03  .159161572810D-11  .000000000000D+00
     .200000000000D+01  .158750000000D+02  .399373778378D-08 -.278416355833D+01
     .828877091408D-06  .762794236653D-02  .419467687607D-05  .515354940987D+04
     .230384000000D+06 -.521540641785D-07 -.235982464972D+01 -.540167093277D-07
     .987499839618D+00  .315000000000D+03  .155076079473D+00 -.794104506212D-08
     .121790787361D-09  .100000000000D+01  .178300000000D+04  .000000000000D+00
     .240000000000D+01  .000000000000D+00 -.977888703346D-08  .200000000000D+01
     .224286000000D+06  .400000000000D+01
